{
    "links": {
        "self": "http://www.neowsapp.com/rest/v1/neo/3765020?api_key=iIulBulltgU6a56xZRHN4H3l9WmuAYTsLGpBGhQ2"
    },
    "id": "3765020",
    "neo_reference_id": "3765020",
    "name": "(2016 XK)",
    "designation": "2016 XK",
    "nasa_jpl_url": "http://ssd.jpl.nasa.gov/sbdb.cgi?sstr=3765020",
    "absolute_magnitude_h": 23.2,
    "estimated_diameter": {
        "kilometers": {
            "estimated_diameter_min": 0.0608912622,
            "estimated_diameter_max": 0.1361570015
        },
        "meters": {
            "estimated_diameter_min": 60.8912622106,
            "estimated_diameter_max": 136.1570015386
        },
        "miles": {
            "estimated_diameter_min": 0.0378360645,
            "estimated_diameter_max": 0.0846040122
        },
        "feet": {
            "estimated_diameter_min": 199.7744887109,
            "estimated_diameter_max": 446.7093369279
        }
    },
    "is_potentially_hazardous_asteroid": false,
    "close_approach_data": [
        {
            "close_approach_date": "2017-01-04",
            "close_approach_date_full": "2017-Jan-04 12:46",
            "epoch_date_close_approach": 1483533960000,
            "relative_velocity": {
                "kilometers_per_second": "7.8139012294",
                "kilometers_per_hour": "28130.0444257895",
                "miles_per_hour": "17478.9156600135"
            },
            "miss_distance": {
                "astronomical": "0.0432593083",
                "lunar": "16.8278709287",
                "kilometers": "6471500.379353321",
                "miles": "4021203.8700289898"
            },
            "orbiting_body": "Earth"
        },
        {
            "close_approach_date": "2024-07-24",
            "close_approach_date_full": "2024-Jul-24 12:38",
            "epoch_date_close_approach": 1721824680000,
            "relative_velocity": {
                "kilometers_per_second": "15.1807449851",
                "kilometers_per_hour": "54650.6819462502",
                "miles_per_hour": "33957.808457102"
            },
            "miss_distance": {
                "astronomical": "0.0728917024",
                "lunar": "28.3548722336",
                "kilometers": "10904443.419713888",
                "miles": "6775706.9473041344"
            },
            "orbiting_body": "Mars"
        }
    ],
    "orbital_data": {
        "orbit_id": "10",
        "orbit_determination_date": "2017-04-06 08:21:42",
        "first_observation_date": "2016-12-02",
        "last_observation_date": "2017-03-07",
        "data_arc_in_days": 95,
        "observations_used": 60,
        "orbit_uncertainty": "7",
        "minimum_orbit_intersection": ".0101552",
        "jupiter_tisserand_invariant": "3.795",
        "epoch_osculation": "2459000.5",
        "eccentricity": ".50480325833776",
        "semi_major_axis": "1.887236862778889",
        "inclination": "3.254787509285144",
        "ascending_node_longitude": "96.21107375778395",
        "orbital_period": "946.9739737822979",
        "perihelion_distance": ".9345535451929741",
        "perihelion_argument": "20.64415317313014",
        "aphelion_distance": "2.839920180364805",
        "perihelion_time": "2458714.584231758750",
        "mean_anomaly": "108.6932475617463",
        "mean_motion": ".3801582830857834",
        "equinox": "J2000",
        "orbit_class": {
            "orbit_class_type": "APO",
            "orbit_class_description": "Near-Earth asteroid orbits which cross the Earth’s orbit similar to that of 1862 Apollo",
            "orbit_class_range": "a (semi-major axis) > 1.0 AU; q (perihelion) < 1.017 AU"
        }
    },
    "is_sentry_object": false
}